CCSDS_OMM_VERS = 2.0
CREATION_DATE  = 
ORIGINATOR     = 

OBJECT_NAME    = SL-3 R/B
OBJECT_ID      = 1982-079B
CENTER_NAME    = EARTH
REF_FRAME      = TEME
TIME_SYSTEM    = UTC
MEAN_ELEMENT_THEORY = SGP/SGP4

EPOCH          = 2026-02-09T05:56:53.026944
MEAN_MOTION    = 15.24381027
ECCENTRICITY   = .00241567
INCLINATION    = 81.1446
RA_OF_ASC_NODE = 226.6514
ARG_OF_PERICENTER = 262.5321
MEAN_ANOMALY   = 97.3167

EPHEMERIS_TYPE = 0
CLASSIFICATION_TYPE = U
NORAD_CAT_ID   = 13403
ELEMENT_SET_NO = 999
REV_AT_EPOCH   = 37336
BSTAR          = .27358195E-3
MEAN_MOTION_DOT = .6781E-4
MEAN_MOTION_DDOT = 0

CCSDS_OMM_VERS = 2.0
CREATION_DATE  = 
ORIGINATOR     = 

OBJECT_NAME    = SL-14 R/B
OBJECT_ID      = 1982-092B
CENTER_NAME    = EARTH
REF_FRAME      = TEME
TIME_SYSTEM    = UTC
MEAN_ELEMENT_THEORY = SGP/SGP4

EPOCH          = 2026-02-09T07:11:22.658784
MEAN_MOTION    = 14.86634984
ECCENTRICITY   = .00212768
INCLINATION    = 82.5705
RA_OF_ASC_NODE = 167.9453
ARG_OF_PERICENTER = 38.9191
MEAN_ANOMALY   = 340.9984

EPHEMERIS_TYPE = 0
CLASSIFICATION_TYPE = U
NORAD_CAT_ID   = 13553
ELEMENT_SET_NO = 999
REV_AT_EPOCH   = 32471
BSTAR          = .77847495E-4
MEAN_MOTION_DOT = .718E-5
MEAN_MOTION_DDOT = 0

CCSDS_OMM_VERS = 2.0
CREATION_DATE  = 
ORIGINATOR     = 

OBJECT_NAME    = SL-3 R/B
OBJECT_ID      = 1983-010B
CENTER_NAME    = EARTH
REF_FRAME      = TEME
TIME_SYSTEM    = UTC
MEAN_ELEMENT_THEORY = SGP/SGP4

EPOCH          = 2026-02-09T00:28:55.860672
MEAN_MOTION    = 15.45333490
ECCENTRICITY   = .00179776
INCLINATION    = 81.1026
RA_OF_ASC_NODE = 37.3695
ARG_OF_PERICENTER = 142.0558
MEAN_ANOMALY   = 218.1958

EPHEMERIS_TYPE = 0
CLASSIFICATION_TYPE = U
NORAD_CAT_ID   = 13819
ELEMENT_SET_NO = 999
REV_AT_EPOCH   = 35351
BSTAR          = .30506072E-3
MEAN_MOTION_DOT = .14671E-3
MEAN_MOTION_DDOT = 0

CCSDS_OMM_VERS = 2.0
CREATION_DATE  = 
ORIGINATOR     = 

OBJECT_NAME    = SL-3 R/B
OBJECT_ID      = 1983-075B
CENTER_NAME    = EARTH
REF_FRAME      = TEME
TIME_SYSTEM    = UTC
MEAN_ELEMENT_THEORY = SGP/SGP4

EPOCH          = 2026-02-09T04:34:48.644256
MEAN_MOTION    = 15.37681470
ECCENTRICITY   = .0021027
INCLINATION    = 97.6136
RA_OF_ASC_NODE = 43.7102
ARG_OF_PERICENTER = 337.0881
MEAN_ANOMALY   = 22.9423

EPHEMERIS_TYPE = 0
CLASSIFICATION_TYPE = U
NORAD_CAT_ID   = 14208
ELEMENT_SET_NO = 999
REV_AT_EPOCH   = 32577
BSTAR          = .35875453E-3
MEAN_MOTION_DOT = .13291E-3
MEAN_MOTION_DDOT = 0

CCSDS_OMM_VERS = 2.0
CREATION_DATE  = 
ORIGINATOR     = 

OBJECT_NAME    = COSMOS 1536
OBJECT_ID      = 1984-013A
CENTER_NAME    = EARTH
REF_FRAME      = TEME
TIME_SYSTEM    = UTC
MEAN_ELEMENT_THEORY = SGP/SGP4

EPOCH          = 2026-02-09T06:47:02.101344
MEAN_MOTION    = 15.23445797
ECCENTRICITY   = .00148493
INCLINATION    = 82.5466
RA_OF_ASC_NODE = 136.0737
ARG_OF_PERICENTER = 28.1120
MEAN_ANOMALY   = 332.0915

EPHEMERIS_TYPE = 0
CLASSIFICATION_TYPE = U
NORAD_CAT_ID   = 14699
ELEMENT_SET_NO = 999
REV_AT_EPOCH   = 26829
BSTAR          = .29318415E-3
MEAN_MOTION_DOT = .7037E-4
MEAN_MOTION_DDOT = 0

CCSDS_OMM_VERS = 2.0
CREATION_DATE  = 
ORIGINATOR     = 

OBJECT_NAME    = SL-14 R/B
OBJECT_ID      = 1984-027B
CENTER_NAME    = EARTH
REF_FRAME      = TEME
TIME_SYSTEM    = UTC
MEAN_ELEMENT_THEORY = SGP/SGP4

EPOCH          = 2026-02-09T01:47:13.630848
MEAN_MOTION    = 14.85948030
ECCENTRICITY   = .00194394
INCLINATION    = 82.5397
RA_OF_ASC_NODE = 271.8564
ARG_OF_PERICENTER = 69.8588
MEAN_ANOMALY   = 290.4718

EPHEMERIS_TYPE = 0
CLASSIFICATION_TYPE = U
NORAD_CAT_ID   = 14820
ELEMENT_SET_NO = 999
REV_AT_EPOCH   = 24338
BSTAR          = .48441706E-4
MEAN_MOTION_DOT = .449E-5
MEAN_MOTION_DDOT = 0

CCSDS_OMM_VERS = 2.0
CREATION_DATE  = 
ORIGINATOR     = 

OBJECT_NAME    = SL-8 R/B
OBJECT_ID      = 1985-006B
CENTER_NAME    = EARTH
REF_FRAME      = TEME
TIME_SYSTEM    = UTC
MEAN_ELEMENT_THEORY = SGP/SGP4

EPOCH          = 2026-02-09T05:15:34.445952
MEAN_MOTION    = 14.37769116
ECCENTRICITY   = .0019511
INCLINATION    = 74.0471
RA_OF_ASC_NODE = 313.5365
ARG_OF_PERICENTER = 236.9031
MEAN_ANOMALY   = 284.4763

EPHEMERIS_TYPE = 0
CLASSIFICATION_TYPE = U
NORAD_CAT_ID   = 15483
ELEMENT_SET_NO = 999
REV_AT_EPOCH   = 14993
BSTAR          = .10025461E-3
MEAN_MOTION_DOT = .276E-5
MEAN_MOTION_DDOT = 0

CCSDS_OMM_VERS = 2.0
CREATION_DATE  = 
ORIGINATOR     = 

OBJECT_NAME    = SL-12 R/B(2)
OBJECT_ID      = 1985-042D
CENTER_NAME    = EARTH
REF_FRAME      = TEME
TIME_SYSTEM    = UTC
MEAN_ELEMENT_THEORY = SGP/SGP4

EPOCH          = 2026-02-09T06:23:58.070112
MEAN_MOTION    = 14.21974389
ECCENTRICITY   = .00348863
INCLINATION    = 71.1087
RA_OF_ASC_NODE = 147.7778
ARG_OF_PERICENTER = 173.7025
MEAN_ANOMALY   = 207.6454

EPHEMERIS_TYPE = 0
CLASSIFICATION_TYPE = U
NORAD_CAT_ID   = 15772
ELEMENT_SET_NO = 999
REV_AT_EPOCH   = 11035
BSTAR          = .11194333E-3
MEAN_MOTION_DOT = .201E-5
MEAN_MOTION_DDOT = 0

CCSDS_OMM_VERS = 2.0
CREATION_DATE  = 
ORIGINATOR     = 

OBJECT_NAME    = SL-14 R/B
OBJECT_ID      = 1985-069B
CENTER_NAME    = EARTH
REF_FRAME      = TEME
TIME_SYSTEM    = UTC
MEAN_ELEMENT_THEORY = SGP/SGP4

EPOCH          = 2026-02-09T01:37:46.812288
MEAN_MOTION    = 14.86398921
ECCENTRICITY   = .00172642
INCLINATION    = 82.5241
RA_OF_ASC_NODE = 51.8526
ARG_OF_PERICENTER = 288.9835
MEAN_ANOMALY   = 70.9511

EPHEMERIS_TYPE = 0
CLASSIFICATION_TYPE = U
NORAD_CAT_ID   = 15945
ELEMENT_SET_NO = 999
REV_AT_EPOCH   = 16858
BSTAR          = .60350029E-4
MEAN_MOTION_DOT = .558E-5
MEAN_MOTION_DDOT = 0

CCSDS_OMM_VERS = 2.0
CREATION_DATE  = 
ORIGINATOR     = 

OBJECT_NAME    = SL-16 R/B
OBJECT_ID      = 1985-097B
CENTER_NAME    = EARTH
REF_FRAME      = TEME
TIME_SYSTEM    = UTC
MEAN_ELEMENT_THEORY = SGP/SGP4

EPOCH          = 2026-02-08T23:30:35.233344
MEAN_MOTION    = 14.16596305
ECCENTRICITY   = .00096441
INCLINATION    = 71.0017
RA_OF_ASC_NODE = 200.9923
ARG_OF_PERICENTER = 293.1789
MEAN_ANOMALY   = 203.5647

EPHEMERIS_TYPE = 0
CLASSIFICATION_TYPE = U
NORAD_CAT_ID   = 16182
ELEMENT_SET_NO = 999
REV_AT_EPOCH   = 8316
BSTAR          = -.28480926E-4
MEAN_MOTION_DOT = -.105E-5
MEAN_MOTION_DDOT = 0

CCSDS_OMM_VERS = 2.0
CREATION_DATE  = 
ORIGINATOR     = 

OBJECT_NAME    = SL-14 R/B
OBJECT_ID      = 1986-006B
CENTER_NAME    = EARTH
REF_FRAME      = TEME
TIME_SYSTEM    = UTC
MEAN_ELEMENT_THEORY = SGP/SGP4

EPOCH          = 2026-02-09T04:29:24.344448
MEAN_MOTION    = 14.86776467
ECCENTRICITY   = .00768788
INCLINATION    = 82.5265
RA_OF_ASC_NODE = 286.5653
ARG_OF_PERICENTER = 8.3686
MEAN_ANOMALY   = 351.8791

EPHEMERIS_TYPE = 0
CLASSIFICATION_TYPE = U
NORAD_CAT_ID   = 16496
ELEMENT_SET_NO = 999
REV_AT_EPOCH   = 14497
BSTAR          = .87663811E-4
MEAN_MOTION_DOT = .85E-5
MEAN_MOTION_DDOT = 0

CCSDS_OMM_VERS = 2.0
CREATION_DATE  = 
ORIGINATOR     = 

OBJECT_NAME    = COSMOS 1743
OBJECT_ID      = 1986-034A
CENTER_NAME    = EARTH
REF_FRAME      = TEME
TIME_SYSTEM    = UTC
MEAN_ELEMENT_THEORY = SGP/SGP4

EPOCH          = 2026-02-09T05:51:23.682240
MEAN_MOTION    = 15.56490349
ECCENTRICITY   = .00050168
INCLINATION    = 82.5328
RA_OF_ASC_NODE = 103.6355
ARG_OF_PERICENTER = 50.2384
MEAN_ANOMALY   = 309.9312

EPHEMERIS_TYPE = 0
CLASSIFICATION_TYPE = U
NORAD_CAT_ID   = 16719
ELEMENT_SET_NO = 999
REV_AT_EPOCH   = 17582
BSTAR          = .49887777E-3
MEAN_MOTION_DOT = .35467E-3
MEAN_MOTION_DDOT = 0

