SL-3 R/B                
1 13403U 82079B   26040.24783596  .00006781  00000+0  27358-3 0  9992
2 13403  81.1446 226.6514 0024156 262.5321  97.3167 15.24381027373360
SL-14 R/B               
1 13553U 82092B   26040.29956781  .00000718  00000+0  77847-4 0  9999
2 13553  82.5705 167.9453 0021276  38.9191 340.9984 14.86634984324717
SL-3 R/B                
1 13819U 83010B   26040.02009098  .00014671  00000+0  30506-3 0  9999
2 13819  81.1026  37.3695 0017977 142.0558 218.1958 15.45333490353519
SL-3 R/B                
1 14208U 83075B   26040.19084079  .00013291  00000+0  35875-3 0  9994
2 14208  97.6136  43.7102 0021027 337.0881  22.9423 15.37681470325776
COSMOS 1536             
1 14699U 84013A   26040.28266321  .00007037  00000+0  29318-3 0  9999
2 14699  82.5466 136.0737 0014849  28.1120 332.0915 15.23445797268296
SL-14 R/B               
1 14820U 84027B   26040.07446332  .00000449  00000+0  48442-4 0  9999
2 14820  82.5397 271.8564 0019439  69.8588 290.4718 14.85948030243387
SL-8 R/B                
1 15483U 85006B   26040.21914868  .00000276  00000+0  10025-3 0  9996
2 15483  74.0471 313.5365 0019511 236.9031 284.4763 14.37769116149938
SL-12 R/B(2)            
1 15772U 85042D   26040.26664433  .00000201  00000+0  11194-3 0  9998
2 15772  71.1087 147.7778 0034886 173.7025 207.6454 14.21974389110359
SL-14 R/B               
1 15945U 85069B   26040.06790292  .00000558  00000+0  60350-4 0  9994
2 15945  82.5241  51.8526 0017264 288.9835  70.9511 14.86398921168580
SL-16 R/B               
1 16182U 85097B   26039.97957446 -.00000105  00000+0 -28481-4 0  9992
2 16182  71.0017 200.9923 0009644 293.1789 203.5647 14.16596305 83168
SL-14 R/B               
1 16496U 86006B   26040.18708732  .00000850  00000+0  87664-4 0  9991
2 16496  82.5265 286.5653 0076878   8.3686 351.8791 14.86776467144973
COSMOS 1743             
1 16719U 86034A   26040.24402410  .00035467  00000+0  49888-3 0  9998
2 16719  82.5328 103.6355 0005016  50.2384 309.9312 15.56490349175827
